{"type": "FeatureCollection", "features": [ {"type": "Feature", "properties": {"norad_id": 40115, "name": "WORLDVIEW-3 (WV-3)", "group": "resource", "lat": -60.55021236673501, "lon": -139.25719025257965, "alt_km": 616.8976176953656, "timestamp": "2025-12-08T13:49:31.450429+00:00", "meta": {"OBJECT_NAME": "WORLDVIEW-3 (WV-3)", "OBJECT_ID": "2014-048A", "EPOCH": "2025-12-08T06:16:30.893952", "MEAN_MOTION": 14.85495213, "ECCENTRICITY": 0.000442, "INCLINATION": 97.862, "RA_OF_ASC_NODE": 54.5981, "ARG_OF_PERICENTER": 200.3592, "MEAN_ANOMALY": 159.7448, "EPHEMERIS_TYPE": 0, "CLASSIFICATION_TYPE": "U", "NORAD_CAT_ID": 40115, "ELEMENT_SET_NO": 999, "REV_AT_EPOCH": 61357, "BSTAR": 0.00026806638, "MEAN_MOTION_DOT": 2.26e-05, "MEAN_MOTION_DDOT": 0}, "tle": {"line1": "1 40115U 14048A   25342.26146868  .00002260  00000+0  26807-3 0  9990", "line2": "2 40115  97.8620  54.5981 0004420 200.3592 159.7448 14.85495213613570"}}, "geometry": {"type": "Point", "coordinates": [-139.25719025257965, -60.55021236673501]}}, {"type": "Feature", "properties": {"norad_id": 40118, "name": "GAOFEN-2", "group": "resource", "lat": 47.17248867316419, "lon": -129.49225114795757, "alt_km": 617.42190184829, "timestamp": "2025-12-08T13:49:31.450440+00:00", "meta": {"OBJECT_NAME": "GAOFEN-2", "OBJECT_ID": "2014-049A", "EPOCH": "2025-12-08T06:44:35.623968", "MEAN_MOTION": 14.80597252, "ECCENTRICITY": 0.00084278, "INCLINATION": 98.0391, "RA_OF_ASC_NODE": 41.4416, "ARG_OF_PERICENTER": 125.856, "MEAN_ANOMALY": 234.3435, "EPHEMERIS_TYPE": 0, "CLASSIFICATION_TYPE": "U", "NORAD_CAT_ID": 40118, "ELEMENT_SET_NO": 999, "REV_AT_EPOCH": 61098, "BSTAR": 0.0002217257, "MEAN_MOTION_DOT": 1.648e-05, "MEAN_MOTION_DDOT": 0}, "tle": {"line1": "1 40118U 14049A   25342.28096787  .00001648  00000+0  22173-3 0  9991", "line2": "2 40118  98.0391  41.4416 0008427 125.8560 234.3435 14.80597252610985"}}, "geometry": {"type": "Point", "coordinates": [-129.49225114795757, 47.17248867316419]}}, {"type": "Feature", "properties": {"norad_id": 40143, "name": "YAOGAN-21", "group": "resource", "lat": 7.9737668641965405, "lon": -152.919114322576, "alt_km": 500.15241479927045, "timestamp": "2025-12-08T13:49:31.450450+00:00", "meta": {"OBJECT_NAME": "YAOGAN-21", "OBJECT_ID": "2014-053A", "EPOCH": "2025-12-08T06:46:10.089408", "MEAN_MOTION": 15.23596222, "ECCENTRICITY": 0.00099922, "INCLINATION": 97.1757, "RA_OF_ASC_NODE": 25.7885, "ARG_OF_PERICENTER": 55.4301, "MEAN_ANOMALY": 304.7878, "EPHEMERIS_TYPE": 0, "CLASSIFICATION_TYPE": "U", "NORAD_CAT_ID": 40143, "ELEMENT_SET_NO": 999, "REV_AT_EPOCH": 62586, "BSTAR": 0.0003647566, "MEAN_MOTION_DOT": 8.677e-05, "MEAN_MOTION_DDOT": 0}, "tle": {"line1": "1 40143U 14053A   25342.28206122  .00008677  00000+0  36476-3 0  9990", "line2": "2 40143  97.1757  25.7885 0009992  55.4301 304.7878 15.23596222625863"}}, "geometry": {"type": "Point", "coordinates": [-152.919114322576, 7.9737668641965405]}}, {"type": "Feature", "properties": {"norad_id": 40275, "name": "YAOGAN-22", "group": "resource", "lat": -59.18800466178135, "lon": -72.6218360035939, "alt_km": 1204.5753169256268, "timestamp": "2025-12-08T13:49:31.450460+00:00", "meta": {"OBJECT_NAME": "YAOGAN-22", "OBJECT_ID": "2014-063A", "EPOCH": "2025-12-08T07:07:42.504672", "MEAN_MOTION": 13.1552248, "ECCENTRICITY": 0.00059245, "INCLINATION": 100.7419, "RA_OF_ASC_NODE": 125.6538, "ARG_OF_PERICENTER": 258.978, "MEAN_ANOMALY": 101.0665, "EPHEMERIS_TYPE": 0, "CLASSIFICATION_TYPE": "U", "NORAD_CAT_ID": 40275, "ELEMENT_SET_NO": 999, "REV_AT_EPOCH": 53471, "BSTAR": 0.00010354436, "MEAN_MOTION_DOT": -8e-08, "MEAN_MOTION_DDOT": 0}, "tle": {"line1": "1 40275U 14063A   25342.29701973 -.00000008  00000+0  10354-3 0  9990", "line2": "2 40275 100.7419 125.6538 0005924 258.9780 101.0665 13.15522480534711"}}, "geometry": {"type": "Point", "coordinates": [-72.6218360035939, -59.18800466178135]}}, {"type": "Feature", "properties": {"norad_id": 40298, "name": "ASNARO", "group": "resource", "lat": -75.44723919333758, "lon": 88.51058529169673, "alt_km": 518.3066460607115, "timestamp": "2025-12-08T13:49:31.450471+00:00", "meta": {"OBJECT_NAME": "ASNARO", "OBJECT_ID": "2014-070A", "EPOCH": "2025-12-08T06:15:46.503360", "MEAN_MOTION": 15.19351297, "ECCENTRICITY": 0.00053844, "INCLINATION": 97.3653, "RA_OF_ASC_NODE": 58.3175, "ARG_OF_PERICENTER": 134.4426, "MEAN_ANOMALY": 225.7251, "EPHEMERIS_TYPE": 0, "CLASSIFICATION_TYPE": "U", "NORAD_CAT_ID": 40298, "ELEMENT_SET_NO": 999, "REV_AT_EPOCH": 61501, "BSTAR": 0.00059967978, "MEAN_MOTION_DOT": 0.00012625, "MEAN_MOTION_DDOT": 0}, "tle": {"line1": "1 40298U 14070A   25342.26095490  .00012625  00000+0  59968-3 0  9991", "line2": "2 40298  97.3653  58.3175 0005384 134.4426 225.7251 15.19351297615011"}}, "geometry": {"type": "Point", "coordinates": [88.51058529169673, -75.44723919333758]}}, {"type": "Feature", "properties": {"norad_id": 40310, "name": "YAOGAN-24", "group": "resource", "lat": -2.3402190083601195, "lon": -66.6870768614449, "alt_km": 636.0433722800517, "timestamp": "2025-12-08T13:49:31.450482+00:00", "meta": {"OBJECT_NAME": "YAOGAN-24", "OBJECT_ID": "2014-072A", "EPOCH": "2025-12-08T06:29:45.190752", "MEAN_MOTION": 14.76163314, "ECCENTRICITY": 0.00145452, "INCLINATION": 98.1225, "RA_OF_ASC_NODE": 113.3404, "ARG_OF_PERICENTER": 151.8528, "MEAN_ANOMALY": 208.347, "EPHEMERIS_TYPE": 0, "CLASSIFICATION_TYPE": "U", "NORAD_CAT_ID": 40310, "ELEMENT_SET_NO": 999, "REV_AT_EPOCH": 59555, "BSTAR": 0.00028186261, "MEAN_MOTION_DOT": 1.898e-05, "MEAN_MOTION_DDOT": 0}, "tle": {"line1": "1 40310U 14072A   25342.27066193  .00001898  00000+0  28186-3 0  9995", "line2": "2 40310  98.1225 113.3404 0014545 151.8528 208.3470 14.76163314595551"}}, "geometry": {"type": "Point", "coordinates": [-66.6870768614449, -2.3402190083601195]}}, {"type": "Feature", "properties": {"norad_id": 40336, "name": "CBERS 4", "group": "resource", "lat": 8.644735607647199, "lon": -137.98803582054808, "alt_km": 774.4320233367835, "timestamp": "2025-12-08T13:49:31.450492+00:00", "meta": {"OBJECT_NAME": "CBERS 4", "OBJECT_ID": "2014-079A", "EPOCH": "2025-12-08T06:20:22.020864", "MEAN_MOTION": 14.35515403, "ECCENTRICITY": 0.00015493, "INCLINATION": 98.3316, "RA_OF_ASC_NODE": 40.4341, "ARG_OF_PERICENTER": 119.6029, "MEAN_ANOMALY": 240.5312, "EPHEMERIS_TYPE": 0, "CLASSIFICATION_TYPE": "U", "NORAD_CAT_ID": 40336, "ELEMENT_SET_NO": 999, "REV_AT_EPOCH": 57656, "BSTAR": 0.00012414744, "MEAN_MOTION_DOT": 3.15e-06, "MEAN_MOTION_DDOT": 0}, "tle": {"line1": "1 40336U 14079A   25342.26414376  .00000315  00000+0  12415-3 0  9990", "line2": "2 40336  98.3316  40.4341 0001549 119.6029 240.5312 14.35515403576568"}}, "geometry": {"type": "Point", "coordinates": [-137.98803582054808, 8.644735607647199]}}, {"type": "Feature", "properties": {"norad_id": 40362, "name": "YAOGAN-26", "group": "resource", "lat": 13.647077158401402, "lon": -18.327100741127378, "alt_km": 445.9512906834698, "timestamp": "2025-12-08T13:49:31.450503+00:00", "meta": {"OBJECT_NAME": "YAOGAN-26", "OBJECT_ID": "2014-088A", "EPOCH": "2025-12-08T05:57:49.872096", "MEAN_MOTION": 15.3906085, "ECCENTRICITY": 0.00067273, "INCLINATION": 97.0644, "RA_OF_ASC_NODE": 343.0825, "ARG_OF_PERICENTER": 42.6768, "MEAN_ANOMALY": 317.5, "EPHEMERIS_TYPE": 0, "CLASSIFICATION_TYPE": "U", "NORAD_CAT_ID": 40362, "ELEMENT_SET_NO": 999, "REV_AT_EPOCH": 60825, "BSTAR": 0.00057748778, "MEAN_MOTION_DOT": 0.00022318, "MEAN_MOTION_DDOT": 0}, "tle": {"line1": "1 40362U 14088A   25342.24849389  .00022318  00000+0  57749-3 0  9999", "line2": "2 40362  97.0644 343.0825 0006727  42.6768 317.5000 15.39060850608251"}}, "geometry": {"type": "Point", "coordinates": [-18.327100741127378, 13.647077158401402]}}, {"type": "Feature", "properties": {"norad_id": 40376, "name": "SMAP", "group": "resource", "lat": -42.064576983368006, "lon": -5.2289619697237475, "alt_km": 689.568596871225, "timestamp": "2025-12-08T13:49:31.450514+00:00", "meta": {"OBJECT_NAME": "SMAP", "OBJECT_ID": "2015-003A", "EPOCH": "2025-12-08T05:48:51.710688", "MEAN_MOTION": 14.63336671, "ECCENTRICITY": 0.00012077, "INCLINATION": 98.129, "RA_OF_ASC_NODE": 347.0309, "ARG_OF_PERICENTER": 88.0587, "MEAN_ANOMALY": 272.0753, "EPHEMERIS_TYPE": 0, "CLASSIFICATION_TYPE": "U", "NORAD_CAT_ID": 40376, "ELEMENT_SET_NO": 999, "REV_AT_EPOCH": 57969, "BSTAR": 0.00022433365, "MEAN_MOTION_DOT": 1.111e-05, "MEAN_MOTION_DDOT": 0}, "tle": {"line1": "1 40376U 15003A   25342.24226517  .00001111  00000+0  22433-3 0  9994", "line2": "2 40376  98.1290 347.0309 0001207  88.0587 272.0753 14.63336671579695"}}, "geometry": {"type": "Point", "coordinates": [-5.2289619697237475, -42.064576983368006]}}, {"type": "Feature", "properties": {"norad_id": 40536, "name": "KOMPSAT-3A", "group": "resource", "lat": -63.745798604066266, "lon": 120.81696053800182, "alt_km": 443.39033691611075, "timestamp": "2025-12-08T13:49:31.450524+00:00", "meta": {"OBJECT_NAME": "KOMPSAT-3A", "OBJECT_ID": "2015-014A", "EPOCH": "2025-12-08T04:59:24.178272", "MEAN_MOTION": 15.43697985, "ECCENTRICITY": 0.00044147, "INCLINATION": 97.679, "RA_OF_ASC_NODE": 316.3046, "ARG_OF_PERICENTER": 136.5669, "MEAN_ANOMALY": 223.5926, "EPHEMERIS_TYPE": 0, "CLASSIFICATION_TYPE": "U", "NORAD_CAT_ID": 40536, "ELEMENT_SET_NO": 999, "REV_AT_EPOCH": 59225, "BSTAR": 0.00050968421, "MEAN_MOTION_DOT": 0.00022947, "MEAN_MOTION_DDOT": 0}, "tle": {"line1": "1 40536U 15014A   25342.20791873  .00022947  00000+0  50968-3 0  9996", "line2": "2 40536  97.6790 316.3046 0004414 136.5669 223.5926 15.43697985592259"}}, "geometry": {"type": "Point", "coordinates": [120.81696053800182, -63.745798604066266]}}]}